IRIDIUM 119             
1 42959U 17061E   25256.91313302  .00000022  00000+0  64157-6 0  9998
2 42959  86.4003 140.7632 0002123  93.0523 267.0916 14.34217834415216
IRIDIUM 107             
1 42960U 17061F   25256.93216696  .00000179  00000+0  56967-4 0  9991
2 42960  86.4004 140.7752 0002435  92.7980 267.3494 14.34219712415223
IRIDIUM 132             
1 42961U 17061G   25256.72919868  .00000153  00000+0  47418-4 0  9993
2 42961  86.4004 140.8413 0002267  86.7693 273.3762 14.34217874415194
IRIDIUM 136             
1 42962U 17061H   25256.97021665  .00000331  00000+0  11112-3 0  9999
2 42962  86.4003 140.7460 0002208  90.1508 269.9941 14.34218593415249
IRIDIUM 139             
1 42963U 17061J   25256.76725378  .00000141  00000+0  43278-4 0  9997
2 42963  86.4006 140.8881 0002311  87.9208 272.2252 14.34217831415221
IRIDIUM 125             
1 42964U 17061K   25256.96387424  .00000102  00000+0  29268-4 0  9996
2 42964  86.4008 140.8621 0002235  98.9626 261.1823 14.34218007415268
IRIDIUM 135             
1 43070U 17083A   25256.93799728  .00000080  00000+0  21558-4 0  9999
2 43070  86.3906  77.4965 0002109  84.1485 275.9952 14.34217668404557
IRIDIUM 138             
1 43071U 17083B   25256.89359880  .00000046  00000+0  94456-5 0  9996
2 43071  86.3896  77.1743 0001795 100.9404 259.1994 14.34217840404535
